NORAD_CAT_ID,OBJECT_NAME,OBJECT_TYPE,EPOCH,MEAN_MOTION,ECCENTRICITY,INCLINATION,RA_OF_ASC_NODE,ARG_OF_PERICENTER,MEAN_ANOMALY,BSTAR,MEAN_MOTION_DOT,MEAN_MOTION_DDOT,TLE_LINE0,TLE_LINE1,TLE_LINE2,SEMIMAJOR_AXIS,PERIOD,APOGEE,PERIGEE,DECAYED
55433.0,STARLINK-5570,PAYLOAD,2024-06-12 06:49:06,14.98333827,0.0002631,70.0001,266.4347,273.482,86.6038,5.472e-05,5.6e-06,0.0,0 STARLINK-5570,1 55433U 23014AU  24164.28409807  .00000560  00000-0  54720-4 0  9998,2 55433  70.0001 266.4347 0002631 273.4820  86.6038 14.98333827 75898,6950.181,96.107,573.875,570.217,0.0
55433.0,STARLINK-5570,PAYLOAD,2024-06-12 16:25:54,14.98329804,0.0003195,69.9994,265.4235,270.1677,89.9116,4.6748e-06,-3.7e-07,0.0,0 STARLINK-5570,1 55433U 23014AU  24164.68466008 -.00000037  00000-0  46748-5 0  9990,2 55433  69.9994 265.4235 0003195 270.1677  89.9116 14.98329804 75951,6950.193,96.107,574.279,569.838,0.0
55433.0,STARLINK-5570,PAYLOAD,2024-06-13 05:14:58,14.98330343,0.0003133,69.9994,264.0778,270.0541,90.0259,0.00011611,1.293e-05,0.0,0 STARLINK-5570,1 55433U 23014AU  24165.21873771  .00001293  00000-0  11611-3 0  9992,2 55433  69.9994 264.0778 0003133 270.0541  90.0259 14.98330343 75095,6950.192,96.107,574.234,569.879,0.0
55433.0,STARLINK-5570,PAYLOAD,2024-06-13 14:51:47,14.98335504,0.0003089,69.9995,263.0663,268.1496,91.9309,0.00015626,1.772e-05,0.0,0 STARLINK-5570,1 55433U 23014AU  24165.61929447  .00001772  00000-0  15626-3 0  9990,2 55433  69.9995 263.0663 0003089 268.1496  91.9309 14.98335504 76096,6950.176,96.107,574.188,569.894,0.0
55433.0,STARLINK-5570,PAYLOAD,2024-06-13 16:27:55,14.98337121,0.0003098,69.9995,262.8978,268.2816,91.7989,0.00018111,2.069e-05,0.0,0 STARLINK-5570,1 55433U 23014AU  24165.68605327  .00002069  00000-0  18111-3 0  9997,2 55433  69.9995 262.8978 0003098 268.2816  91.7989 14.98337121 76100,6950.171,96.107,574.189,569.883,0.0
55433.0,STARLINK-5570,PAYLOAD,2024-06-14 13:17:39,14.98335629,0.0003139,70.0005,260.7103,271.0087,89.0713,0.0002224,2.562e-05,0.0,0 STARLINK-5570,1 55433U 23014AU  24166.55393458  .00002562  00000-0  22240-3 0  9999,2 55433  70.0005 260.7103 0003139 271.0087  89.0713 14.98335629 76230,6950.175,96.107,574.222,569.859,0.0
55433.0,STARLINK-5570,PAYLOAD,2024-06-14 14:53:47,14.98336372,0.0003135,70.0004,260.542,271.0474,89.0325,0.00022898,2.641e-05,0.0,0 STARLINK-5570,1 55433U 23014AU  24166.62069410  .00002641  00000-0  22898-3 0  9992,2 55433  70.0004 260.5420 0003135 271.0474  89.0325 14.98336372 76241,6950.173,96.107,574.217,569.859,0.0
55433.0,STARLINK-5570,PAYLOAD,2024-06-15 13:19:40,14.98335212,0.0003037,69.9997,258.1857,269.8736,90.2075,7.6724e-05,8.23e-06,0.0,0 STARLINK-5570,1 55433U 23014AU  24167.55533364  .00000823  00000-0  76724-4 0  9997,2 55433  69.9997 258.1857 0003037 269.8736  90.2075 14.98335212 76386,6950.177,96.107,574.153,569.931,0.0
55433.0,STARLINK-5570,PAYLOAD,2024-06-15 16:31:56,14.98338689,0.0003013,69.9997,257.8491,269.83,90.2513,0.00010826,1.199e-05,0.0,0 STARLINK-5570,1 55433U 23014AU  24167.68884987  .00001199  00000-0  10826-3 0  9998,2 55433  69.9997 257.8491 0003013 269.8300  90.2513 14.98338689 76408,6950.166,96.106,574.125,569.937,0.0
55433.0,STARLINK-5570,PAYLOAD,2024-06-16 13:21:41,14.98335952,0.0003051,69.9994,255.6607,269.5131,90.5678,5.7059e-05,5.88e-06,0.0,0 STARLINK-5570,1 55433U 23014AU  24168.55672903  .00000588  00000-0  57059-4 0  9999,2 55433  69.9994 255.6607 0003051 269.5131  90.5678 14.98335952 75595,6950.174,96.107,574.16,569.919,0.0
55433.0,STARLINK-5570,PAYLOAD,2024-06-16 14:57:49,14.98336212,0.0003047,69.9994,255.4924,269.6564,90.4246,5.7705e-05,5.96e-06,0.0,0 STARLINK-5570,1 55433U 23014AU  24168.62348854  .00000596  00000-0  57705-4 0  9999,2 55433  69.9994 255.4924 0003047 269.6564  90.4246 14.98336212 76547,6950.174,96.107,574.156,569.921,0.0
55433.0,STARLINK-5570,PAYLOAD,2024-06-17 11:47:35,14.98322298,0.0002988,69.9995,253.3043,269.6974,90.3842,-7.9816e-05,-1.045e-05,0.0,0 STARLINK-5570,1 55433U 23014AU  24169.49138022 -.00001045  00000-0 -79816-4 0  9998,2 55433  69.9995 253.3043 0002988 269.6974  90.3842 14.98322298 76679,6950.217,96.107,574.158,570.005,0.0
55433.0,STARLINK-5570,PAYLOAD,2024-06-18 11:49:35,14.9833251,0.0003162,69.999,250.7787,268.3763,91.7034,9.1156e-05,9.95e-06,0.0,0 STARLINK-5570,1 55433U 23014AU  24170.49277066  .00000995  00000-0  91156-4 0  9994,2 55433  69.9990 250.7787 0003162 268.3763  91.7034 14.98332510 75885,6950.185,96.107,574.248,569.852,0.0
55433.0,STARLINK-5570,PAYLOAD,2024-06-18 13:25:43,14.983281,0.0003298,69.9995,250.6124,272.3071,87.771,0.00015948,1.81e-05,0.0,0 STARLINK-5570,1 55433U 23014AU  24170.55953221  .00001810  00000-0  15948-3 0  9996,2 55433  69.9995 250.6124 0003298 272.3071  87.7710 14.98328100 76833,6950.199,96.107,574.356,569.772,0.0
55433.0,STARLINK-5570,PAYLOAD,2024-06-18 15:01:51,14.98327354,0.0003024,69.9994,250.443,266.9306,93.1507,0.00014242,1.607e-05,0.0,0 STARLINK-5570,1 55433U 23014AU  24170.62629307  .00001607  00000-0  14242-3 0  9999,2 55433  69.9994 250.4430 0003024 266.9306  93.1507 14.98327354 76843,6950.201,96.107,574.168,569.964,0.0
55433.0,STARLINK-5570,PAYLOAD,2024-06-19 11:51:36,14.98328171,0.0003224,69.9989,248.2547,269.3576,90.7214,0.00015104,1.71e-05,0.0,0 STARLINK-5570,1 55433U 23014AU  24171.49417280  .00001710  00000-0  15104-3 0  9993,2 55433  69.9989 248.2547 0003224 269.3576  90.7214 14.98328171 76036,6950.199,96.107,574.304,569.823,0.0
55433.0,STARLINK-5570,PAYLOAD,2024-06-19 13:27:44,14.98328375,0.0003225,69.9989,248.0864,269.3648,90.7142,0.00015182,1.719e-05,0.0,0 STARLINK-5570,1 55433U 23014AU  24171.56093287  .00001719  00000-0  15182-3 0  9993,2 55433  69.9989 248.0864 0003225 269.3648  90.7142 14.98328375 76987,6950.198,96.107,574.304,569.821,0.0
55433.0,STARLINK-5570,PAYLOAD,2024-06-19 15:03:52,14.98328873,0.0003224,69.9989,247.9181,269.3527,90.7262,0.00015586,1.767e-05,0.0,0 STARLINK-5570,1 55433U 23014AU  24171.62769267  .00001767  00000-0  15586-3 0  9999,2 55433  69.9989 247.9181 0003224 269.3527  90.7262 14.98328873 76999,6950.196,96.107,574.302,569.821,0.0
55433.0,STARLINK-5570,PAYLOAD,2024-06-20 13:29:45,14.98335519,0.0003203,69.9989,245.5612,269.4794,90.5998,4.9371e-05,4.96e-06,0.0,0 STARLINK-5570,1 55433U 23014AU  24172.56233001  .00000496  00000-0  49371-4 0  9993,2 55433  69.9989 245.5612 0003203 269.4794  90.5998 14.98335519 77132,6950.176,96.107,574.267,569.815,0.0
55433.0,STARLINK-5570,PAYLOAD,2024-06-20 15:05:53,14.98335882,0.0003207,69.9989,245.3929,269.5587,90.5205,5.1681e-05,5.24e-06,0.0,0 STARLINK-5570,1 55433U 23014AU  24172.62908947  .00000524  00000-0  51681-4 0  9997,2 55433  69.9989 245.3929 0003207 269.5587  90.5205 14.98335882 76207,6950.175,96.107,574.269,569.811,0.0
55433.0,STARLINK-5570,PAYLOAD,2024-06-21 11:55:38,14.98330496,0.0003165,69.9991,243.2044,270.5584,89.5212,2.2299e-05,1.73e-06,0.0,0 STARLINK-5570,1 55433U 23014AU  24173.49697252  .00000173  00000-0  22299-4 0  9990,2 55433  69.9991 243.2044 0003165 270.5584  89.5212 14.98330496 76333,6950.191,96.107,574.256,569.857,0.0
55433.0,STARLINK-5570,PAYLOAD,2024-06-21 13:31:46,14.98330813,0.000316,69.9991,243.0361,270.5726,89.5071,2.4854e-05,2.04e-06,0.0,0 STARLINK-5570,1 55433U 23014AU  24173.56373219  .00000204  00000-0  24854-4 0  9996,2 55433  69.9991 243.0361 0003160 270.5726  89.5071 14.98330813 77287,6950.19,96.107,574.252,569.859,0.0
55433.0,STARLINK-5570,PAYLOAD,2024-06-21 15:07:54,14.98331111,0.000316,69.9991,242.8678,270.5966,89.4831,2.7123e-05,2.31e-06,0.0,0 STARLINK-5570,1 55433U 23014AU  24173.63049188  .00000231  00000-0  27123-4 0  9991,2 55433  69.9991 242.8678 0003160 270.5966  89.4831 14.98331111 77297,6950.189,96.107,574.251,569.858,0.0
55433.0,STARLINK-5570,PAYLOAD,2024-06-22 11:57:39,14.98331291,0.0003178,69.9991,240.6796,269.925,90.1544,1.2061e-05,5.1e-07,0.0,0 STARLINK-5570,1 55433U 23014AU  24174.49837137  .00000051  00000-0  12061-4 0  9990,2 55433  69.9991 240.6796 0003178 269.9250  90.1544 14.98331291 76480,6950.189,96.107,574.263,569.845,0.0
55433.0,STARLINK-5570,PAYLOAD,2024-06-22 13:33:47,14.98331177,0.000318,69.9991,240.5113,269.9377,90.1418,1.0075e-05,2.7e-07,0.0,0 STARLINK-5570,1 55433U 23014AU  24174.56513143  .00000027  00000-0  10075-4 0  9992,2 55433  69.9991 240.5113 0003180 269.9377  90.1418 14.98331177 77434,6950.189,96.107,574.264,569.844,0.0
55433.0,STARLINK-5570,PAYLOAD,2024-06-23 11:59:40,14.98328524,0.0003233,69.999,238.1546,267.3063,92.7726,3.0733e-05,2.74e-06,0.0,0 STARLINK-5570,1 55433U 23014AU  24175.49977221  .00000274  00000-0  30733-4 0  9993,2 55433  69.9990 238.1546 0003233 267.3063  92.7726 14.98328524 76632,6950.197,96.107,574.309,569.815,0.0
55433.0,STARLINK-5570,PAYLOAD,2024-06-23 13:35:48,14.98329307,0.0003232,69.999,237.9863,267.6958,92.3831,3.8686e-05,3.69e-06,0.0,0 STARLINK-5570,1 55433U 23014AU  24175.56653156  .00000369  00000-0  38686-4 0  9999,2 55433  69.9990 237.9863 0003232 267.6958  92.3831 14.98329307 77584,6950.195,96.107,574.306,569.814,0.0
55433.0,STARLINK-5570,PAYLOAD,2024-06-24 12:01:40,14.98333281,0.0003339,69.9987,235.6296,269.0133,91.0643,6.4052e-05,6.71e-06,0.0,0 STARLINK-5570,1 55433U 23014AU  24176.50116732  .00000671  00000-0  64052-4 0  9990,2 55433  69.9987 235.6296 0003339 269.0133  91.0643 14.98333281 76788,6950.183,96.107,574.368,569.727,0.0
55433.0,STARLINK-5570,PAYLOAD,2024-06-24 13:37:48,14.98334072,0.0003319,69.9988,235.4615,268.3533,91.7246,7.2366e-05,7.71e-06,0.0,0 STARLINK-5570,1 55433U 23014AU  24176.56792645  .00000771  00000-0  72366-4 0  9997,2 55433  69.9988 235.4615 0003319 268.3533  91.7246 14.98334072 77737,6950.18,96.107,574.352,569.739,0.0
55433.0,STARLINK-5570,PAYLOAD,2024-06-25 12:03:42,14.98328939,0.0003309,69.9991,233.1052,267.7895,92.2885,2.875e-05,2.5e-06,0.0,0 STARLINK-5570,1 55433U 23014AU  24177.50257014  .00000250  00000-0  28750-4 0  9998,2 55433  69.9991 233.1052 0003309 267.7895  92.2885 14.98328939 76935,6950.196,96.107,574.361,569.761,0.0
